CCSDS_OMM_VERS = 2.0
CREATION_DATE  = 
ORIGINATOR     = 

OBJECT_NAME    = KUIPER-00178
OBJECT_ID      = 2026-030D
CENTER_NAME    = EARTH
REF_FRAME      = TEME
TIME_SYSTEM    = UTC
MEAN_ELEMENT_THEORY = SGP/SGP4

EPOCH          = 2026-02-25T04:51:39.277152
MEAN_MOTION    = 15.34930733
ECCENTRICITY   = .0005772
INCLINATION    = 51.8845
RA_OF_ASC_NODE = 279.3763
ARG_OF_PERICENTER = 13.8893
MEAN_ANOMALY   = 346.2250

EPHEMERIS_TYPE = 0
CLASSIFICATION_TYPE = U
NORAD_CAT_ID   = 67767
ELEMENT_SET_NO = 999
REV_AT_EPOCH   = 317
BSTAR          = .84413E-3
MEAN_MOTION_DOT = .28776E-3
MEAN_MOTION_DDOT = 0

CCSDS_OMM_VERS = 2.0
CREATION_DATE  = 
ORIGINATOR     = 

OBJECT_NAME    = KUIPER-00180
OBJECT_ID      = 2026-030E
CENTER_NAME    = EARTH
REF_FRAME      = TEME
TIME_SYSTEM    = UTC
MEAN_ELEMENT_THEORY = SGP/SGP4

EPOCH          = 2026-02-25T05:14:26.707488
MEAN_MOTION    = 15.32606046
ECCENTRICITY   = .0014747
INCLINATION    = 51.8827
RA_OF_ASC_NODE = 279.4726
ARG_OF_PERICENTER = 33.9290
MEAN_ANOMALY   = 326.2635

EPHEMERIS_TYPE = 0
CLASSIFICATION_TYPE = U
NORAD_CAT_ID   = 67768
ELEMENT_SET_NO = 999
REV_AT_EPOCH   = 317
BSTAR          = .68058E-3
MEAN_MOTION_DOT = .21504E-3
MEAN_MOTION_DDOT = 0

CCSDS_OMM_VERS = 2.0
CREATION_DATE  = 
ORIGINATOR     = 

OBJECT_NAME    = KUIPER-00197
OBJECT_ID      = 2026-030F
CENTER_NAME    = EARTH
REF_FRAME      = TEME
TIME_SYSTEM    = UTC
MEAN_ELEMENT_THEORY = SGP/SGP4

EPOCH          = 2026-02-25T03:07:40.005696
MEAN_MOTION    = 15.35782076
ECCENTRICITY   = .00014303
INCLINATION    = 51.8840
RA_OF_ASC_NODE = 279.6432
ARG_OF_PERICENTER = 71.5207
MEAN_ANOMALY   = 288.5934

EPHEMERIS_TYPE = 0
CLASSIFICATION_TYPE = U
NORAD_CAT_ID   = 67769
ELEMENT_SET_NO = 999
REV_AT_EPOCH   = 316
BSTAR          = .53167275E-3
MEAN_MOTION_DOT = .18454E-3
MEAN_MOTION_DDOT = 0

CCSDS_OMM_VERS = 2.0
CREATION_DATE  = 
ORIGINATOR     = 

OBJECT_NAME    = KUIPER-00198
OBJECT_ID      = 2026-030G
CENTER_NAME    = EARTH
REF_FRAME      = TEME
TIME_SYSTEM    = UTC
MEAN_ELEMENT_THEORY = SGP/SGP4

EPOCH          = 2026-02-25T04:45:38.270304
MEAN_MOTION    = 15.35437830
ECCENTRICITY   = .0002802
INCLINATION    = 51.8817
RA_OF_ASC_NODE = 279.3464
ARG_OF_PERICENTER = 25.4749
MEAN_ANOMALY   = 334.6375

EPHEMERIS_TYPE = 0
CLASSIFICATION_TYPE = U
NORAD_CAT_ID   = 67770
ELEMENT_SET_NO = 999
REV_AT_EPOCH   = 317
BSTAR          = .75223E-3
MEAN_MOTION_DOT = .26006E-3
MEAN_MOTION_DDOT = 0

CCSDS_OMM_VERS = 2.0
CREATION_DATE  = 
ORIGINATOR     = 

OBJECT_NAME    = KUIPER-00199
OBJECT_ID      = 2026-030H
CENTER_NAME    = EARTH
REF_FRAME      = TEME
TIME_SYSTEM    = UTC
MEAN_ELEMENT_THEORY = SGP/SGP4

EPOCH          = 2026-02-25T05:04:21.019296
MEAN_MOTION    = 15.33829421
ECCENTRICITY   = .0010202
INCLINATION    = 51.8822
RA_OF_ASC_NODE = 279.4280
ARG_OF_PERICENTER = 24.4664
MEAN_ANOMALY   = 335.6804

EPHEMERIS_TYPE = 0
CLASSIFICATION_TYPE = U
NORAD_CAT_ID   = 67771
ELEMENT_SET_NO = 999
REV_AT_EPOCH   = 317
BSTAR          = .72211E-3
MEAN_MOTION_DOT = .23716E-3
MEAN_MOTION_DDOT = 0

CCSDS_OMM_VERS = 2.0
CREATION_DATE  = 
ORIGINATOR     = 

OBJECT_NAME    = KUIPER-00200
OBJECT_ID      = 2026-030J
CENTER_NAME    = EARTH
REF_FRAME      = TEME
TIME_SYSTEM    = UTC
MEAN_ELEMENT_THEORY = SGP/SGP4

EPOCH          = 2026-02-25T06:07:56.872704
MEAN_MOTION    = 15.36411102
ECCENTRICITY   = .0002185
INCLINATION    = 51.8811
RA_OF_ASC_NODE = 278.9825
ARG_OF_PERICENTER = 164.5669
MEAN_ANOMALY   = 195.5384

EPHEMERIS_TYPE = 0
CLASSIFICATION_TYPE = U
NORAD_CAT_ID   = 67772
ELEMENT_SET_NO = 999
REV_AT_EPOCH   = 318
BSTAR          = .70941E-3
MEAN_MOTION_DOT = .25286E-3
MEAN_MOTION_DDOT = 0

CCSDS_OMM_VERS = 2.0
CREATION_DATE  = 
ORIGINATOR     = 

OBJECT_NAME    = KUIPER-00203
OBJECT_ID      = 2026-030K
CENTER_NAME    = EARTH
REF_FRAME      = TEME
TIME_SYSTEM    = UTC
MEAN_ELEMENT_THEORY = SGP/SGP4

EPOCH          = 2026-02-25T05:07:38.871840
MEAN_MOTION    = 15.33546096
ECCENTRICITY   = .0012286
INCLINATION    = 51.8816
RA_OF_ASC_NODE = 279.4403
ARG_OF_PERICENTER = 26.4314
MEAN_ANOMALY   = 333.7296

EPHEMERIS_TYPE = 0
CLASSIFICATION_TYPE = U
NORAD_CAT_ID   = 67773
ELEMENT_SET_NO = 999
REV_AT_EPOCH   = 317
BSTAR          = .74392E-3
MEAN_MOTION_DOT = .24242E-3
MEAN_MOTION_DDOT = 0

CCSDS_OMM_VERS = 2.0
CREATION_DATE  = 
ORIGINATOR     = 

OBJECT_NAME    = KUIPER-00205
OBJECT_ID      = 2026-030L
CENTER_NAME    = EARTH
REF_FRAME      = TEME
TIME_SYSTEM    = UTC
MEAN_ELEMENT_THEORY = SGP/SGP4

EPOCH          = 2026-02-25T04:42:18.642240
MEAN_MOTION    = 15.35769307
ECCENTRICITY   = .0001984
INCLINATION    = 51.8816
RA_OF_ASC_NODE = 279.3316
ARG_OF_PERICENTER = 356.1508
MEAN_ANOMALY   = 3.9462

EPHEMERIS_TYPE = 0
CLASSIFICATION_TYPE = U
NORAD_CAT_ID   = 67774
ELEMENT_SET_NO = 999
REV_AT_EPOCH   = 317
BSTAR          = .77561E-3
MEAN_MOTION_DOT = .27118E-3
MEAN_MOTION_DDOT = 0

CCSDS_OMM_VERS = 2.0
CREATION_DATE  = 
ORIGINATOR     = 

OBJECT_NAME    = KUIPER-00208
OBJECT_ID      = 2026-030M
CENTER_NAME    = EARTH
REF_FRAME      = TEME
TIME_SYSTEM    = UTC
MEAN_ELEMENT_THEORY = SGP/SGP4

EPOCH          = 2026-02-25T05:13:38.632800
MEAN_MOTION    = 15.32813327
ECCENTRICITY   = .0014775
INCLINATION    = 51.8850
RA_OF_ASC_NODE = 279.4759
ARG_OF_PERICENTER = 25.2886
MEAN_ANOMALY   = 334.8819

EPHEMERIS_TYPE = 0
CLASSIFICATION_TYPE = U
NORAD_CAT_ID   = 67775
ELEMENT_SET_NO = 999
REV_AT_EPOCH   = 317
BSTAR          = .64557E-3
MEAN_MOTION_DOT = .20511E-3
MEAN_MOTION_DDOT = 0

CCSDS_OMM_VERS = 2.0
CREATION_DATE  = 
ORIGINATOR     = 

OBJECT_NAME    = KUIPER-00209
OBJECT_ID      = 2026-030N
CENTER_NAME    = EARTH
REF_FRAME      = TEME
TIME_SYSTEM    = UTC
MEAN_ELEMENT_THEORY = SGP/SGP4

EPOCH          = 2026-02-25T05:12:42.073632
MEAN_MOTION    = 15.32498939
ECCENTRICITY   = .0012238
INCLINATION    = 51.8847
RA_OF_ASC_NODE = 279.4691
ARG_OF_PERICENTER = 24.8482
MEAN_ANOMALY   = 335.3089

EPHEMERIS_TYPE = 0
CLASSIFICATION_TYPE = U
NORAD_CAT_ID   = 67776
ELEMENT_SET_NO = 999
REV_AT_EPOCH   = 317
BSTAR          = .66287E-3
MEAN_MOTION_DOT = .20841E-3
MEAN_MOTION_DDOT = 0

CCSDS_OMM_VERS = 2.0
CREATION_DATE  = 
ORIGINATOR     = 

OBJECT_NAME    = KUIPER-00213
OBJECT_ID      = 2026-030P
CENTER_NAME    = EARTH
REF_FRAME      = TEME
TIME_SYSTEM    = UTC
MEAN_ELEMENT_THEORY = SGP/SGP4

EPOCH          = 2026-02-25T05:12:36.772992
MEAN_MOTION    = 15.32622424
ECCENTRICITY   = .0014497
INCLINATION    = 51.8819
RA_OF_ASC_NODE = 279.4644
ARG_OF_PERICENTER = 28.4000
MEAN_ANOMALY   = 331.7772

EPHEMERIS_TYPE = 0
CLASSIFICATION_TYPE = U
NORAD_CAT_ID   = 67777
ELEMENT_SET_NO = 999
REV_AT_EPOCH   = 317
BSTAR          = .66177E-3
MEAN_MOTION_DOT = .20907E-3
MEAN_MOTION_DDOT = 0

CCSDS_OMM_VERS = 2.0
CREATION_DATE  = 
ORIGINATOR     = 

OBJECT_NAME    = KUIPER-00214
OBJECT_ID      = 2026-030Q
CENTER_NAME    = EARTH
REF_FRAME      = TEME
TIME_SYSTEM    = UTC
MEAN_ELEMENT_THEORY = SGP/SGP4

EPOCH          = 2026-02-25T06:09:59.692896
MEAN_MOTION    = 15.36194104
ECCENTRICITY   = .0001745
INCLINATION    = 51.8846
RA_OF_ASC_NODE = 278.9934
ARG_OF_PERICENTER = 156.6464
MEAN_ANOMALY   = 203.4602

EPHEMERIS_TYPE = 0
CLASSIFICATION_TYPE = U
NORAD_CAT_ID   = 67778
ELEMENT_SET_NO = 999
REV_AT_EPOCH   = 318
BSTAR          = .67964E-3
MEAN_MOTION_DOT = .24034E-3
MEAN_MOTION_DDOT = 0

