KUIPER-00178            
1 67767U 26030D   26056.20253793  .00028776  00000+0  84413-3 0  9996
2 67767  51.8845 279.3763 0005772  13.8893 346.2250 15.34930733  3177
KUIPER-00180            
1 67768U 26030E   26056.21836467  .00021504  00000+0  68058-3 0  9992
2 67768  51.8827 279.4726 0014747  33.9290 326.2635 15.32606046  3174
KUIPER-00197            
1 67769U 26030F   26056.13032414  .00018454  00000+0  53167-3 0  9999
2 67769  51.8840 279.6432 0001430  71.5207 288.5934 15.35782076  3169
KUIPER-00198            
1 67770U 26030G   26056.19835961  .00026006  00000+0  75223-3 0  9994
2 67770  51.8817 279.3464 0002802  25.4749 334.6375 15.35437830  3178
KUIPER-00199            
1 67771U 26030H   26056.21135439  .00023716  00000+0  72211-3 0  9990
2 67771  51.8822 279.4280 0010202  24.4664 335.6804 15.33829421  3177
KUIPER-00200            
1 67772U 26030J   26056.25551936  .00025286  00000+0  70941-3 0  9991
2 67772  51.8811 278.9825 0002185 164.5669 195.5384 15.36411102  3180
KUIPER-00203            
1 67773U 26030K   26056.21364435  .00024242  00000+0  74392-3 0  9999
2 67773  51.8816 279.4403 0012286  26.4314 333.7296 15.33546096  3175
KUIPER-00205            
1 67774U 26030L   26056.19604910  .00027118  00000+0  77561-3 0  9998
2 67774  51.8816 279.3316 0001984 356.1508   3.9462 15.35769307  3174
KUIPER-00208            
1 67775U 26030M   26056.21780825  .00020511  00000+0  64557-3 0  9993
2 67775  51.8850 279.4759 0014775  25.2886 334.8819 15.32813327  3171
KUIPER-00209            
1 67776U 26030N   26056.21715363  .00020841  00000+0  66287-3 0  9997
2 67776  51.8847 279.4691 0012238  24.8482 335.3089 15.32498939  3175
KUIPER-00213            
1 67777U 26030P   26056.21709228  .00020907  00000+0  66177-3 0  9992
2 67777  51.8819 279.4644 0014497  28.4000 331.7772 15.32622424  3175
KUIPER-00214            
1 67778U 26030Q   26056.25694089  .00024034  00000+0  67964-3 0  9995
2 67778  51.8846 278.9934 0001745 156.6464 203.4602 15.36194104  3183
